STARLINK-30496          
1 57919U 23147G   25274.92635045  .00004945  00000+0  38056-3 0  9998
2 57919  43.0042 108.9169 0000850 260.3808  99.6938 15.02569374112730
STARLINK-30485          
1 57920U 23147H   25274.85658088 -.00000294  00000+0 -67046-5 0  9992
2 57920  43.0045 109.2555 0001419 269.6795  90.3884 15.02529169112722
STARLINK-30492          
1 57921U 23147J   25274.91972750 -.00000162  00000+0  30525-5 0  9990
2 57921  43.0035 108.8667 0001235 263.2109  96.8593 15.02529855112704
STARLINK-30440          
1 57923U 23147L   25274.84991348 -.00001445  00000+0 -91934-4 0  9994
2 57923  43.0035 109.2041 0001446 271.2891  88.7786 15.02539832112720
STARLINK-30487          
1 57924U 23147M   25274.89639865  .00006058  00000+0  46315-3 0  9998
2 57924  43.0000 108.6771 0000228 311.3895  48.6927 15.02532428112730
STARLINK-30452          
1 57925U 23147N   25274.84658976 -.00000329  00000+0 -92964-5 0  9998
2 57925  43.0041 109.1759 0001555 273.8761  86.1903 15.02530103112690
STARLINK-30468          
1 57926U 23147P   25274.84325733  .00000103  00000+0  22677-4 0  9992
2 57926  43.0027 109.1586 0001090 262.0533  98.0186 15.02536102112694
STARLINK-30459          
1 57927U 23147Q   25274.89756259  .00028932  00000+0  91000-3 0  9994
2 57927  43.0021 337.4014 0005150  54.0364 306.0967 15.32415779114244
STARLINK-30448          
1 57928U 23147R   25274.96956603 -.00000846  00000+0 -47612-4 0  9995
2 57928  43.0020 108.3813 0000966 273.6655  86.4077 15.02524554112718
STARLINK-30476          
1 57930U 23147T   25274.51290650  .00057454  00000+0  30390-2 0  9990
2 57930  42.9989  87.5106 0011982 261.5667  98.3822 15.14605848112916
STARLINK-30488          
1 57931U 23147U   25274.89977801 -.00004168  00000+0 -29378-3 0  9993
2 57931  43.0016 108.7192 0001474 140.2027 219.8923 15.02521178112731
STARLINK-30471          
1 57932U 23147V   25274.88310249 -.00000744  00000+0 -40049-4 0  9995
2 57932  43.0029 108.5905 0000911 207.3087 152.7707 15.02527214112701
STARLINK-30461          
1 57933U 23147W   25274.95956383  .00000370  00000+0  42480-4 0  9993
2 57933  43.0027 108.3108 0001107 264.9980  95.0736 15.02534251112713
STARLINK-30458          
1 57934U 23147X   25274.66037697  .02501193  00000+0  10986-1 0  9994
2 57934  42.9776  35.6596 0035429 343.3869  16.5838 15.79746497113531
STARLINK-30712          
1 57935U 23148A   25274.64802508 -.00004959  00000+0 -15548-3 0  9994
2 57935  53.1600  42.9341 0001084  80.5631 279.5492 15.30188552114074
STARLINK-30716          
1 57936U 23148B   25275.06945213 -.00002759  00000+0 -81081-4 0  9995
2 57936  53.1616  41.2075 0001198 109.8480 250.2650 15.30189943114135
