[{"OBJECT_NAME":"STARLINK-30496","OBJECT_ID":"2023-147G","EPOCH":"2025-10-01T22:13:56.678880","MEAN_MOTION":15.02569374,"ECCENTRICITY":8.5e-5,"INCLINATION":43.0042,"RA_OF_ASC_NODE":108.9169,"ARG_OF_PERICENTER":260.3808,"MEAN_ANOMALY":99.6938,"EPHEMERIS_TYPE":0,"CLASSIFICATION_TYPE":"U","NORAD_CAT_ID":57919,"ELEMENT_SET_NO":999,"REV_AT_EPOCH":11273,"BSTAR":0.00038056,"MEAN_MOTION_DOT":4.945e-5,"MEAN_MOTION_DDOT":0},{"OBJECT_NAME":"STARLINK-30485","OBJECT_ID":"2023-147H","EPOCH":"2025-10-01T20:33:28.588032","MEAN_MOTION":15.02529169,"ECCENTRICITY":0.00014194,"INCLINATION":43.0045,"RA_OF_ASC_NODE":109.2555,"ARG_OF_PERICENTER":269.6795,"MEAN_ANOMALY":90.3884,"EPHEMERIS_TYPE":0,"CLASSIFICATION_TYPE":"U","NORAD_CAT_ID":57920,"ELEMENT_SET_NO":999,"REV_AT_EPOCH":11272,"BSTAR":-6.704626e-6,"MEAN_MOTION_DOT":-2.94e-6,"MEAN_MOTION_DDOT":0},{"OBJECT_NAME":"STARLINK-30492","OBJECT_ID":"2023-147J","EPOCH":"2025-10-01T22:04:24.456000","MEAN_MOTION":15.02529855,"ECCENTRICITY":0.0001235,"INCLINATION":43.0035,"RA_OF_ASC_NODE":108.8667,"ARG_OF_PERICENTER":263.2109,"MEAN_ANOMALY":96.8593,"EPHEMERIS_TYPE":0,"CLASSIFICATION_TYPE":"U","NORAD_CAT_ID":57921,"ELEMENT_SET_NO":999,"REV_AT_EPOCH":11270,"BSTAR":3.0525e-6,"MEAN_MOTION_DOT":-1.62e-6,"MEAN_MOTION_DDOT":0},{"OBJECT_NAME":"STARLINK-30440","OBJECT_ID":"2023-147L","EPOCH":"2025-10-01T20:23:52.524672","MEAN_MOTION":15.02539832,"ECCENTRICITY":0.00014467,"INCLINATION":43.0035,"RA_OF_ASC_NODE":109.2041,"ARG_OF_PERICENTER":271.2891,"MEAN_ANOMALY":88.7786,"EPHEMERIS_TYPE":0,"CLASSIFICATION_TYPE":"U","NORAD_CAT_ID":57923,"ELEMENT_SET_NO":999,"REV_AT_EPOCH":11272,"BSTAR":-9.1933915e-5,"MEAN_MOTION_DOT":-1.445e-5,"MEAN_MOTION_DDOT":0},{"OBJECT_NAME":"STARLINK-30487","OBJECT_ID":"2023-147M","EPOCH":"2025-10-01T21:30:48.843360","MEAN_MOTION":15.02532428,"ECCENTRICITY":2.28e-5,"INCLINATION":43,"RA_OF_ASC_NODE":108.6771,"ARG_OF_PERICENTER":311.3895,"MEAN_ANOMALY":48.6927,"EPHEMERIS_TYPE":0,"CLASSIFICATION_TYPE":"U","NORAD_CAT_ID":57924,"ELEMENT_SET_NO":999,"REV_AT_EPOCH":11273,"BSTAR":0.00046315,"MEAN_MOTION_DOT":6.058e-5,"MEAN_MOTION_DDOT":0},{"OBJECT_NAME":"STARLINK-30452","OBJECT_ID":"2023-147N","EPOCH":"2025-10-01T20:19:05.355264","MEAN_MOTION":15.02530103,"ECCENTRICITY":0.00015555,"INCLINATION":43.0041,"RA_OF_ASC_NODE":109.1759,"ARG_OF_PERICENTER":273.8761,"MEAN_ANOMALY":86.1903,"EPHEMERIS_TYPE":0,"CLASSIFICATION_TYPE":"U","NORAD_CAT_ID":57925,"ELEMENT_SET_NO":999,"REV_AT_EPOCH":11269,"BSTAR":-9.296411e-6,"MEAN_MOTION_DOT":-3.29e-6,"MEAN_MOTION_DDOT":0},{"OBJECT_NAME":"STARLINK-30468","OBJECT_ID":"2023-147P","EPOCH":"2025-10-01T20:14:17.433312","MEAN_MOTION":15.02536102,"ECCENTRICITY":0.00010902,"INCLINATION":43.0027,"RA_OF_ASC_NODE":109.1586,"ARG_OF_PERICENTER":262.0533,"MEAN_ANOMALY":98.0186,"EPHEMERIS_TYPE":0,"CLASSIFICATION_TYPE":"U","NORAD_CAT_ID":57926,"ELEMENT_SET_NO":999,"REV_AT_EPOCH":11269,"BSTAR":2.2677128e-5,"MEAN_MOTION_DOT":1.03e-6,"MEAN_MOTION_DDOT":0},{"OBJECT_NAME":"STARLINK-30459","OBJECT_ID":"2023-147Q","EPOCH":"2025-10-01T21:32:29.407776","MEAN_MOTION":15.32415779,"ECCENTRICITY":0.000515,"INCLINATION":43.0021,"RA_OF_ASC_NODE":337.4014,"ARG_OF_PERICENTER":54.0364,"MEAN_ANOMALY":306.0967,"EPHEMERIS_TYPE":0,"CLASSIFICATION_TYPE":"U","NORAD_CAT_ID":57927,"ELEMENT_SET_NO":999,"REV_AT_EPOCH":11424,"BSTAR":0.00091,"MEAN_MOTION_DOT":0.00028932,"MEAN_MOTION_DDOT":0},{"OBJECT_NAME":"STARLINK-30448","OBJECT_ID":"2023-147R","EPOCH":"2025-10-01T23:16:10.504992","MEAN_MOTION":15.02524554,"ECCENTRICITY":9.66e-5,"INCLINATION":43.002,"RA_OF_ASC_NODE":108.3813,"ARG_OF_PERICENTER":273.6655,"MEAN_ANOMALY":86.4077,"EPHEMERIS_TYPE":0,"CLASSIFICATION_TYPE":"U","NORAD_CAT_ID":57928,"ELEMENT_SET_NO":999,"REV_AT_EPOCH":11271,"BSTAR":-4.7612e-5,"MEAN_MOTION_DOT":-8.46e-6,"MEAN_MOTION_DDOT":0},{"OBJECT_NAME":"STARLINK-30476","OBJECT_ID":"2023-147T","EPOCH":"2025-10-01T12:18:35.121600","MEAN_MOTION":15.14605848,"ECCENTRICITY":0.00119825,"INCLINATION":42.9989,"RA_OF_ASC_NODE":87.5106,"ARG_OF_PERICENTER":261.5667,"MEAN_ANOMALY":98.3822,"EPHEMERIS_TYPE":0,"CLASSIFICATION_TYPE":"U","NORAD_CAT_ID":57930,"ELEMENT_SET_NO":999,"REV_AT_EPOCH":11291,"BSTAR":0.0030389785,"MEAN_MOTION_DOT":0.00057454,"MEAN_MOTION_DDOT":0},{"OBJECT_NAME":"STARLINK-30488","OBJECT_ID":"2023-147U","EPOCH":"2025-10-01T21:35:40.820064","MEAN_MOTION":15.02521178,"ECCENTRICITY":0.0001474,"INCLINATION":43.0016,"RA_OF_ASC_NODE":108.7192,"ARG_OF_PERICENTER":140.2027,"MEAN_ANOMALY":219.8923,"EPHEMERIS_TYPE":0,"CLASSIFICATION_TYPE":"U","NORAD_CAT_ID":57931,"ELEMENT_SET_NO":999,"REV_AT_EPOCH":11273,"BSTAR":-0.00029378,"MEAN_MOTION_DOT":-4.168e-5,"MEAN_MOTION_DDOT":0},{"OBJECT_NAME":"STARLINK-30471","OBJECT_ID":"2023-147V","EPOCH":"2025-10-01T21:11:40.055136","MEAN_MOTION":15.02527214,"ECCENTRICITY":9.11e-5,"INCLINATION":43.0029,"RA_OF_ASC_NODE":108.5905,"ARG_OF_PERICENTER":207.3087,"MEAN_ANOMALY":152.7707,"EPHEMERIS_TYPE":0,"CLASSIFICATION_TYPE":"U","NORAD_CAT_ID":57932,"ELEMENT_SET_NO":999,"REV_AT_EPOCH":11270,"BSTAR":-4.0049e-5,"MEAN_MOTION_DOT":-7.44e-6,"MEAN_MOTION_DDOT":0},{"OBJECT_NAME":"STARLINK-30461","OBJECT_ID":"2023-147W","EPOCH":"2025-10-01T23:01:46.314912","MEAN_MOTION":15.02534251,"ECCENTRICITY":0.0001107,"INCLINATION":43.0027,"RA_OF_ASC_NODE":108.3108,"ARG_OF_PERICENTER":264.998,"MEAN_ANOMALY":95.0736,"EPHEMERIS_TYPE":0,"CLASSIFICATION_TYPE":"U","NORAD_CAT_ID":57933,"ELEMENT_SET_NO":999,"REV_AT_EPOCH":11271,"BSTAR":4.248e-5,"MEAN_MOTION_DOT":3.7e-6,"MEAN_MOTION_DDOT":0},{"OBJECT_NAME":"STARLINK-30458","OBJECT_ID":"2023-147X","EPOCH":"2025-10-01T15:50:56.570208","MEAN_MOTION":15.79746497,"ECCENTRICITY":0.00354294,"INCLINATION":42.9776,"RA_OF_ASC_NODE":35.6596,"ARG_OF_PERICENTER":343.3869,"MEAN_ANOMALY":16.5838,"EPHEMERIS_TYPE":0,"CLASSIFICATION_TYPE":"U","NORAD_CAT_ID":57934,"ELEMENT_SET_NO":999,"REV_AT_EPOCH":11353,"BSTAR":0.010985521,"MEAN_MOTION_DOT":0.02501193,"MEAN_MOTION_DDOT":0},{"OBJECT_NAME":"STARLINK-30712","OBJECT_ID":"2023-148A","EPOCH":"2025-10-01T15:33:09.366912","MEAN_MOTION":15.30188552,"ECCENTRICITY":0.00010848,"INCLINATION":53.16,"RA_OF_ASC_NODE":42.9341,"ARG_OF_PERICENTER":80.5631,"MEAN_ANOMALY":279.5492,"EPHEMERIS_TYPE":0,"CLASSIFICATION_TYPE":"U","NORAD_CAT_ID":57935,"ELEMENT_SET_NO":999,"REV_AT_EPOCH":11407,"BSTAR":-0.00015548195,"MEAN_MOTION_DOT":-4.959e-5,"MEAN_MOTION_DDOT":0},{"OBJECT_NAME":"STARLINK-30716","OBJECT_ID":"2023-148B","EPOCH":"2025-10-02T01:40:00.664032","MEAN_MOTION":15.30189943,"ECCENTRICITY":0.0001198,"INCLINATION":53.1616,"RA_OF_ASC_NODE":41.2075,"ARG_OF_PERICENTER":109.848,"MEAN_ANOMALY":250.265,"EPHEMERIS_TYPE":0,"CLASSIFICATION_TYPE":"U","NORAD_CAT_ID":57936,"ELEMENT_SET_NO":999,"REV_AT_EPOCH":11413,"BSTAR":-8.1081e-5,"MEAN_MOTION_DOT":-2.759e-5,"MEAN_MOTION_DDOT":0}]
